CCSDS_OMM_VERS = 2.0
CREATION_DATE  = 
ORIGINATOR     = 

OBJECT_NAME    = SILVERSAT
OBJECT_ID      = 1998-067XV
CENTER_NAME    = EARTH
REF_FRAME      = TEME
TIME_SYSTEM    = UTC
MEAN_ELEMENT_THEORY = SGP/SGP4

EPOCH          = 2026-02-05T16:34:23.149344
MEAN_MOTION    = 15.62282810
ECCENTRICITY   = .0002541
INCLINATION    = 51.6267
RA_OF_ASC_NODE = 227.4820
ARG_OF_PERICENTER = 216.1775
MEAN_ANOMALY   = 143.9048

EPHEMERIS_TYPE = 0
CLASSIFICATION_TYPE = U
NORAD_CAT_ID   = 66909
ELEMENT_SET_NO = 999
REV_AT_EPOCH   = 1017
BSTAR          = .1703978E-2
MEAN_MOTION_DOT = .15585E-2
MEAN_MOTION_DDOT = 0

CCSDS_OMM_VERS = 2.0
CREATION_DATE  = 
ORIGINATOR     = 

OBJECT_NAME    = 1998-067XW
OBJECT_ID      = 1998-067XW
CENTER_NAME    = EARTH
REF_FRAME      = TEME
TIME_SYSTEM    = UTC
MEAN_ELEMENT_THEORY = SGP/SGP4

EPOCH          = 2026-02-05T13:48:25.001568
MEAN_MOTION    = 15.60969290
ECCENTRICITY   = .00009267
INCLINATION    = 51.6261
RA_OF_ASC_NODE = 228.2075
ARG_OF_PERICENTER = 216.3298
MEAN_ANOMALY   = 143.7633

EPHEMERIS_TYPE = 0
CLASSIFICATION_TYPE = U
NORAD_CAT_ID   = 66910
ELEMENT_SET_NO = 999
REV_AT_EPOCH   = 1015
BSTAR          = .15281467E-2
MEAN_MOTION_DOT = .132378E-2
MEAN_MOTION_DDOT = 0

CCSDS_OMM_VERS = 2.0
CREATION_DATE  = 
ORIGINATOR     = 

OBJECT_NAME    = 1998-067XX
OBJECT_ID      = 1998-067XX
CENTER_NAME    = EARTH
REF_FRAME      = TEME
TIME_SYSTEM    = UTC
MEAN_ELEMENT_THEORY = SGP/SGP4

EPOCH          = 2026-02-05T17:26:47.893344
MEAN_MOTION    = 15.63444455
ECCENTRICITY   = .00024053
INCLINATION    = 51.6248
RA_OF_ASC_NODE = 226.9678
ARG_OF_PERICENTER = 238.4032
MEAN_ANOMALY   = 121.6728

EPHEMERIS_TYPE = 0
CLASSIFICATION_TYPE = U
NORAD_CAT_ID   = 66911
ELEMENT_SET_NO = 999
REV_AT_EPOCH   = 1017
BSTAR          = .17882918E-2
MEAN_MOTION_DOT = .171534E-2
MEAN_MOTION_DDOT = 0

CCSDS_OMM_VERS = 2.0
CREATION_DATE  = 
ORIGINATOR     = 

OBJECT_NAME    = 1998-067XY
OBJECT_ID      = 1998-067XY
CENTER_NAME    = EARTH
REF_FRAME      = TEME
TIME_SYSTEM    = UTC
MEAN_ELEMENT_THEORY = SGP/SGP4

EPOCH          = 2026-02-05T13:38:17.314944
MEAN_MOTION    = 15.58262707
ECCENTRICITY   = .00015008
INCLINATION    = 51.6271
RA_OF_ASC_NODE = 228.9164
ARG_OF_PERICENTER = 149.6169
MEAN_ANOMALY   = 210.4910

EPHEMERIS_TYPE = 0
CLASSIFICATION_TYPE = U
NORAD_CAT_ID   = 66912
ELEMENT_SET_NO = 999
REV_AT_EPOCH   = 1013
BSTAR          = .12599897E-2
MEAN_MOTION_DOT = .97921E-3
MEAN_MOTION_DDOT = 0

