SILVERSAT               
1 66909U 98067XV  26036.69054571  .00155850  00000+0  17040-2 0  9991
2 66909  51.6267 227.4820 0002541 216.1775 143.9048 15.62282810 10178
1998-067XW              
1 66910U 98067XW  26036.57528937  .00132378  00000+0  15281-2 0  9997
2 66910  51.6261 228.2075 0000926 216.3298 143.7633 15.60969290 10150
1998-067XX              
1 66911U 98067XX  26036.72694321  .00171534  00000+0  17883-2 0  9993
2 66911  51.6248 226.9678 0002405 238.4032 121.6728 15.63444455 10171
1998-067XY              
1 66912U 98067XY  26036.56825596  .00097921  00000+0  12600-2 0  9995
2 66912  51.6271 228.9164 0001500 149.6169 210.4910 15.58262707 10137
